[
    {
        "OBJECT_NAME": "GSAT0210 (GALILEO 13)",
        "OBJECT_ID": "2016-030B",
        "EPOCH": "2025-03-01T20:29:07.853568",
        "MEAN_MOTION": 1.70473765,
        "ECCENTRICITY": 0.000112,
        "INCLINATION": 55.2576,
        "RA_OF_ASC_NODE": 234.6814,
        "ARG_OF_PERICENTER": 166.5482,
        "MEAN_ANOMALY": 193.4156,
        "EPHEMERIS_TYPE": 0,
        "CLASSIFICATION_TYPE": "U",
        "NORAD_CAT_ID": 41550,
        "ELEMENT_SET_NO": 999,
        "REV_AT_EPOCH": 5459,
        "BSTAR": 0,
        "MEAN_MOTION_DOT": 4.9e-07,
        "MEAN_MOTION_DDOT": 0
    },
    {
        "OBJECT_NAME": "GSAT0207 (GALILEO 15)",
        "OBJECT_ID": "2016-069A",
        "EPOCH": "2025-02-27T18:51:51.312384",
        "MEAN_MOTION": 1.70474543,
        "ECCENTRICITY": 0.0004913,
        "INCLINATION": 55.2144,
        "RA_OF_ASC_NODE": 114.2277,
        "ARG_OF_PERICENTER": 298.1375,
        "MEAN_ANOMALY": 61.9061,
        "EPHEMERIS_TYPE": 0,
        "CLASSIFICATION_TYPE": "U",
        "NORAD_CAT_ID": 41859,
        "ELEMENT_SET_NO": 999,
        "REV_AT_EPOCH": 5131,
        "BSTAR": 0,
        "MEAN_MOTION_DOT": 2.9e-07,
        "MEAN_MOTION_DDOT": 0
    },
    {
        "OBJECT_NAME": "GSAT0212 (GALILEO 16)",
        "OBJECT_ID": "2016-069B",
        "EPOCH": "2025-02-28T05:26:17.352672",
        "MEAN_MOTION": 1.7047474,
        "ECCENTRICITY": 0.0003131,
        "INCLINATION": 55.2123,
        "RA_OF_ASC_NODE": 114.2113,
        "ARG_OF_PERICENTER": 323.0873,
        "MEAN_ANOMALY": 36.9851,
        "EPHEMERIS_TYPE": 0,
        "CLASSIFICATION_TYPE": "U",
        "NORAD_CAT_ID": 41860,
        "ELEMENT_SET_NO": 999,
        "REV_AT_EPOCH": 5157,
        "BSTAR": 0,
        "MEAN_MOTION_DOT": 3e-07,
        "MEAN_MOTION_DDOT": 0
    },
    {
        "OBJECT_NAME": "GSAT0213 (GALILEO 17)",
        "OBJECT_ID": "2016-069C",
        "EPOCH": "2025-03-02T08:30:26.034336",
        "MEAN_MOTION": 1.70474972,
        "ECCENTRICITY": 0.0005152,
        "INCLINATION": 55.2157,
        "RA_OF_ASC_NODE": 114.1594,
        "ARG_OF_PERICENTER": 281.5446,
        "MEAN_ANOMALY": 78.4869,
        "EPHEMERIS_TYPE": 0,
        "CLASSIFICATION_TYPE": "U",
        "NORAD_CAT_ID": 41861,
        "ELEMENT_SET_NO": 999,
        "REV_AT_EPOCH": 5147,
        "BSTAR": 0,
        "MEAN_MOTION_DOT": 2.4e-07,
        "MEAN_MOTION_DDOT": 0
    },
    {
        "OBJECT_NAME": "GSAT0214 (GALILEO 18)",
        "OBJECT_ID": "2016-069D",
        "EPOCH": "2025-02-26T23:31:55.068672",
        "MEAN_MOTION": 1.70474903,
        "ECCENTRICITY": 0.0004399,
        "INCLINATION": 55.213,
        "RA_OF_ASC_NODE": 114.2462,
        "ARG_OF_PERICENTER": 281.0682,
        "MEAN_ANOMALY": 78.973,
        "EPHEMERIS_TYPE": 0,
        "CLASSIFICATION_TYPE": "U",
        "NORAD_CAT_ID": 41862,
        "ELEMENT_SET_NO": 999,
        "REV_AT_EPOCH": 5154,
        "BSTAR": 0,
        "MEAN_MOTION_DOT": 2.6e-07,
        "MEAN_MOTION_DDOT": 0
    },
    {
        "OBJECT_NAME": "GSAT0215 (GALILEO 19)",
        "OBJECT_ID": "2017-079A",
        "EPOCH": "2025-02-28T01:22:16.638528",
        "MEAN_MOTION": 1.70474294,
        "ECCENTRICITY": 7.09e-05,
        "INCLINATION": 55.2376,
        "RA_OF_ASC_NODE": 234.551,
        "ARG_OF_PERICENTER": 39.2891,
        "MEAN_ANOMALY": 320.6855,
        "EPHEMERIS_TYPE": 0,
        "CLASSIFICATION_TYPE": "U",
        "NORAD_CAT_ID": 43055,
        "ELEMENT_SET_NO": 999,
        "REV_AT_EPOCH": 4490,
        "BSTAR": 0,
        "MEAN_MOTION_DOT": 5.6e-07,
        "MEAN_MOTION_DDOT": 0
    },
    {
        "OBJECT_NAME": "GSAT0216 (GALILEO 20)",
        "OBJECT_ID": "2017-079B",
        "EPOCH": "2025-03-01T12:31:22.447776",
        "MEAN_MOTION": 1.7047439,
        "ECCENTRICITY": 0.0001552,
        "INCLINATION": 55.237,
        "RA_OF_ASC_NODE": 234.5106,
        "ARG_OF_PERICENTER": 327.3134,
        "MEAN_ANOMALY": 32.6385,
        "EPHEMERIS_TYPE": 0,
        "CLASSIFICATION_TYPE": "U",
        "NORAD_CAT_ID": 43056,
        "ELEMENT_SET_NO": 999,
        "REV_AT_EPOCH": 4494,
        "BSTAR": 0,
        "MEAN_MOTION_DOT": 4.9e-07,
        "MEAN_MOTION_DDOT": 0
    },
    {
        "OBJECT_NAME": "GSAT0217 (GALILEO 21)",
        "OBJECT_ID": "2017-079C",
        "EPOCH": "2025-03-02T07:53:40.986240",
        "MEAN_MOTION": 1.70474275,
        "ECCENTRICITY": 0.0002026,
        "INCLINATION": 55.234,
        "RA_OF_ASC_NODE": 234.4865,
        "ARG_OF_PERICENTER": 359.889,
        "MEAN_ANOMALY": 0.0705,
        "EPHEMERIS_TYPE": 0,
        "CLASSIFICATION_TYPE": "U",
        "NORAD_CAT_ID": 43057,
        "ELEMENT_SET_NO": 999,
        "REV_AT_EPOCH": 4494,
        "BSTAR": 0,
        "MEAN_MOTION_DOT": 4.8e-07,
        "MEAN_MOTION_DDOT": 0
    },
    {
        "OBJECT_NAME": "GSAT0218 (GALILEO 22)",
        "OBJECT_ID": "2017-079D",
        "EPOCH": "2025-02-28T18:56:31.256160",
        "MEAN_MOTION": 1.70474322,
        "ECCENTRICITY": 0.0001729,
        "INCLINATION": 55.2347,
        "RA_OF_ASC_NODE": 234.5265,
        "ARG_OF_PERICENTER": 306.3819,
        "MEAN_ANOMALY": 53.567,
        "EPHEMERIS_TYPE": 0,
        "CLASSIFICATION_TYPE": "U",
        "NORAD_CAT_ID": 43058,
        "ELEMENT_SET_NO": 999,
        "REV_AT_EPOCH": 4494,
        "BSTAR": 0,
        "MEAN_MOTION_DOT": 5.2e-07,
        "MEAN_MOTION_DDOT": 0
    },
    {
        "OBJECT_NAME": "GSAT0221 (GALILEO 25)",
        "OBJECT_ID": "2018-060A",
        "EPOCH": "2025-02-28T02:30:06.318720",
        "MEAN_MOTION": 1.70475287,
        "ECCENTRICITY": 0.0005667,
        "INCLINATION": 57.2867,
        "RA_OF_ASC_NODE": 354.5742,
        "ARG_OF_PERICENTER": 302.2626,
        "MEAN_ANOMALY": 57.6852,
        "EPHEMERIS_TYPE": 0,
        "CLASSIFICATION_TYPE": "U",
        "NORAD_CAT_ID": 43564,
        "ELEMENT_SET_NO": 999,
        "REV_AT_EPOCH": 4108,
        "BSTAR": 0,
        "MEAN_MOTION_DOT": -8.2e-07,
        "MEAN_MOTION_DDOT": 0
    },
    {
        "OBJECT_NAME": "GSAT0222 (GALILEO 26)",
        "OBJECT_ID": "2018-060B",
        "EPOCH": "2025-02-28T07:45:19.258848",
        "MEAN_MOTION": 1.70474977,
        "ECCENTRICITY": 0.0004208,
        "INCLINATION": 57.2902,
        "RA_OF_ASC_NODE": 354.5708,
        "ARG_OF_PERICENTER": 282.3447,
        "MEAN_ANOMALY": 77.6114,
        "EPHEMERIS_TYPE": 0,
        "CLASSIFICATION_TYPE": "U",
        "NORAD_CAT_ID": 43565,
        "ELEMENT_SET_NO": 999,
        "REV_AT_EPOCH": 4113,
        "BSTAR": 0,
        "MEAN_MOTION_DOT": -8.2e-07,
        "MEAN_MOTION_DDOT": 0
    },
    {
        "OBJECT_NAME": "GSAT0219 (GALILEO 23)",
        "OBJECT_ID": "2018-060C",
        "EPOCH": "2025-03-01T03:08:58.595136",
        "MEAN_MOTION": 1.70475233,
        "ECCENTRICITY": 0.0005051,
        "INCLINATION": 57.2893,
        "RA_OF_ASC_NODE": 354.5507,
        "ARG_OF_PERICENTER": 310.5119,
        "MEAN_ANOMALY": 49.4489,
        "EPHEMERIS_TYPE": 0,
        "CLASSIFICATION_TYPE": "U",
        "NORAD_CAT_ID": 43566,
        "ELEMENT_SET_NO": 999,
        "REV_AT_EPOCH": 4112,
        "BSTAR": 0,
        "MEAN_MOTION_DOT": -8.4e-07,
        "MEAN_MOTION_DDOT": 0
    },
    {
        "OBJECT_NAME": "GSAT0220 (GALILEO 24)",
        "OBJECT_ID": "2018-060D",
        "EPOCH": "2025-02-28T04:17:30.188832",
        "MEAN_MOTION": 1.70475118,
        "ECCENTRICITY": 0.0005597,
        "INCLINATION": 57.2893,
        "RA_OF_ASC_NODE": 354.5769,
        "ARG_OF_PERICENTER": 300.7131,
        "MEAN_ANOMALY": 59.2347,
        "EPHEMERIS_TYPE": 0,
        "CLASSIFICATION_TYPE": "U",
        "NORAD_CAT_ID": 43567,
        "ELEMENT_SET_NO": 999,
        "REV_AT_EPOCH": 4109,
        "BSTAR": 0,
        "MEAN_MOTION_DOT": -8.2e-07,
        "MEAN_MOTION_DDOT": 0
    }
]