GSAT0210 (GALILEO 13)   
1 41550U 16030B   25060.85356312  .00000049  00000+0  00000+0 0  9992
2 41550  55.2576 234.6814 0001120 166.5482 193.4156  1.70473765 54593
GSAT0207 (GALILEO 15)   
1 41859U 16069A   25058.78601056  .00000029  00000+0  00000+0 0  9991
2 41859  55.2144 114.2277 0004913 298.1375  61.9061  1.70474543 51314
GSAT0212 (GALILEO 16)   
1 41860U 16069B   25059.22658973  .00000030  00000+0  00000+0 0  9995
2 41860  55.2123 114.2113 0003131 323.0873  36.9851  1.70474740 51570
GSAT0213 (GALILEO 17)   
1 41861U 16069C   25061.35446799  .00000024  00000+0  00000+0 0  9997
2 41861  55.2157 114.1594 0005152 281.5446  78.4869  1.70474972 51475
GSAT0214 (GALILEO 18)   
1 41862U 16069D   25057.98049848  .00000026  00000+0  00000+0 0  9998
2 41862  55.2130 114.2462 0004399 281.0682  78.9730  1.70474903 51545
GSAT0215 (GALILEO 19)   
1 43055U 17079A   25059.05713702  .00000056  00000+0  00000+0 0  9996
2 43055  55.2376 234.5510 0000709  39.2891 320.6855  1.70474294 44909
GSAT0216 (GALILEO 20)   
1 43056U 17079B   25060.52178759  .00000049  00000+0  00000+0 0  9990
2 43056  55.2370 234.5106 0001552 327.3134  32.6385  1.70474390 44942
GSAT0217 (GALILEO 21)   
1 43057U 17079C   25061.32894660  .00000048  00000+0  00000+0 0  9995
2 43057  55.2340 234.4865 0002026 359.8890   0.0705  1.70474275 44944
GSAT0218 (GALILEO 22)   
1 43058U 17079D   25059.78925065  .00000052  00000+0  00000+0 0  9992
2 43058  55.2347 234.5265 0001729 306.3819  53.5670  1.70474322 44941
GSAT0221 (GALILEO 25)   
1 43564U 18060A   25059.10423980 -.00000082  00000+0  00000+0 0  9994
2 43564  57.2867 354.5742 0005667 302.2626  57.6852  1.70475287 41081
GSAT0222 (GALILEO 26)   
1 43565U 18060B   25059.32313957 -.00000082  00000+0  00000+0 0  9991
2 43565  57.2902 354.5708 0004208 282.3447  77.6114  1.70474977 41137
GSAT0219 (GALILEO 23)   
1 43566U 18060C   25060.13123374 -.00000084  00000+0  00000+0 0  9997
2 43566  57.2893 354.5507 0005051 310.5119  49.4489  1.70475233 41128
GSAT0220 (GALILEO 24)   
1 43567U 18060D   25059.17882163 -.00000082  00000+0  00000+0 0  9996
2 43567  57.2893 354.5769 0005597 300.7131  59.2347  1.70475118 41099
